BEESAT-4                
1 41619U 16040W   21299.41888432  .00004845  00000-0  18901-3 0  9996
2 41619  97.2535 351.7898 0009308 220.4010 139.6539 15.26349679284983
CAS-2T & KS-1Q          
1 41847U 16066G   21299.40645920  .00000368  00000-0  65566-4 0  9995
2 41847  98.5860 358.9840 0364958 189.2524 170.1815 14.38261306260707
NAYIF-1 (EO-88)         
1 42017U 17008BX  21299.28876922  .00005367  00000-0  19242-3 0  9999
2 42017  97.3019   4.5186 0006007  20.7924 339.3559 15.29120652261241
ZHUHAI-1 02 (CAS-4B)    
1 42759U 17034B   21299.56864387  .00000839  00000-0  63294-4 0  9990
2 42759  43.0174 180.1340 0009089 268.6406 165.8405 15.10473669240976
ZHUHAI-1 01 (CAS-4A)    
1 42761U 17034D   21299.55147966  .00000800  00000-0  60837-4 0  9997
2 42761  43.0180 179.1869 0009660 269.9701 161.5937 15.10559449240971
MAX VALIER SAT          
1 42778U 17036P   21299.37235320  .00002966  00000-0  12451-3 0  9992
2 42778  97.2400 343.6234 0013370  77.3698 282.9034 15.24145878241225
RADFXSAT (FOX-1B)       
1 43017U 17073E   21299.25216373  .00001315  00000-0  10657-3 0  9997
2 43017  97.6929 197.9776 0252563 233.3140 124.4627 14.79879189212468
FOX-1D (AO-92)          
1 43137U 18004AC  21299.38812652  .00003712  00000-0  14755-3 0  9997
2 43137  97.3953  12.0463 0010202 107.3311 252.9044 15.25881839210620
DIWATA-2B               
1 43678U 18084H   21299.45150738  .00000431  00000-0  48476-4 0  9996
2 43678  97.9408  65.5392 0009526 347.0207  13.0774 14.91815199162966
ES'HAIL 2               
1 43700U 18090A   21299.48297706  .00000152  00000-0  00000-0 0  9996
2 43700   0.0168 238.2137 0002589   5.5354 351.0091  1.00272204 10685
FOX-1CLIFF (AO-95)      
1 43770U 18099N   21299.13162197  .00001159  00000-0  10964-3 0  9990
2 43770  97.6521   6.3544 0013838 346.4750  13.6099 14.95492640157989
ITASAT 1                
1 43786U 18099AE  21299.42740926  .00000525  00000-0  52166-4 0  9998
2 43786  97.6546   7.4124 0014458 338.2831  21.7776 14.95768040158069
JY1SAT (JO-97)          
1 43803U 18099AX  21299.43522927  .00000438  00000-0  44026-4 0  9997
2 43803  97.6506   7.1597 0014411 337.4651  22.5936 14.96048746158079
UWE-4                   
1 43880U 18111E   21299.26393035  .00000839  00000-0  77767-4 0  9997
2 43880  97.6760 204.6987 0012909  30.7224 329.4751 14.97058427154654
NEXUS (FO-99)           
1 43937U 19003F   21299.33086072  .00004042  00000-0  15669-3 0  9991
2 43937  97.1626 337.2245 0020857 267.7734  92.1117 15.26492484154223
PSAT2 (NO-104)          
1 44354U 19036R   21299.39704810  .00034712  00000-0  43557-3 0  9998
2 44354  28.5303 331.1445 0306333 260.3831  96.2031 15.18496204128861
BRICSAT2 (NO-103)       
1 44355U 19036S   21299.23719919  .00094516 -41794-5  85194-3 0  9990
2 44355  28.5251 262.0683 0219854  12.7386 347.8659 15.41624757129544
JAISAT-1                
1 44419U 19038F   21299.36945439  .00003066  00000-0  17049-3 0  9998
2 44419  97.6056 263.7369 0019591 217.1292 142.8585 15.14292999127602
DUCHIFAT-3              
1 44854U 19089C   21299.56564069  .00001104  00000-0  94070-4 0  9996
2 44854  36.9667  45.1488 0006707 117.8332 242.3084 14.99722243102794
CAS-6 (TO-108)          
1 44881U 19093C   21299.49779691  .00000123  00000-0  22471-4 0  9998
2 44881  97.9156  16.8417 0013963 223.5308 136.4803 14.81496748100138
RS-44 & BREEZE-KM R/B   
1 44909U 19096E   21299.34831790  .00000012  00000-0 -10641-5 0  9990
2 44909  82.5264  25.8313 0218129 146.8904 214.6071 12.79711262 85565
ORBITAL FACTORY 2 (OF-2)
1 45113U 19071C   21299.21633642  .00006840  00000-0  19546-3 0  9998
2 45113  51.6401 122.9548 0011491  49.5496 310.6488 15.37121530 97270
HUSKYSAT-1 (HO-107)     
1 45119U 19071J   21299.42422480  .00006652  00000-0  19089-3 0  9996
2 45119  51.6399 121.3335 0010967  46.6747 313.5149 15.37044619 97305
BY70-2                  
1 45857U 20042B   21299.51087956  .00001861  00000-0  26828-3 0  9996
2 45857  97.9762  13.8768 0012204 147.2454 212.9516 14.77443389 70890
SALSAT                  
1 46495U 20068K   21299.56830962  .00001397  00000-0  10644-3 0  9994
2 46495  97.7000 236.3468 0016604 353.4852   6.6153 15.03621860 59032
BY70-3                  
1 46839U 20079N   21299.61422916  .00005456  00000-0  16346-3 0  9995
2 46839  97.2288  10.8742 0008709  95.0882  11.0106 15.34878632 54315
RADFXSAT-2 (AO-109)     
1 47311U 21002C   21299.16359249  .00003250  00000-0  14931-3 0  9994
2 47311  60.6850 161.7052 0040058 113.5359 246.9944 15.22223443 42764
UVSQ-SAT                
1 47438U 21006AB  21299.43634416  .00002028  00000-0  11666-3 0  9994
2 47438  97.4724 358.2366 0012800  13.1450 347.0113 15.13521550 41865
DIY-1 (ARDUIQUBE)       
1 47963U 21022AH  21299.44714274  .00004807  00000-0  31460-3 0  9998
2 47963  97.5453 199.4304 0017797 213.0903 146.9213 15.08097277 31638
